NORAD_CAT_ID,OBJECT_NAME,OBJECT_TYPE,EPOCH,MEAN_MOTION,ECCENTRICITY,INCLINATION,RA_OF_ASC_NODE,ARG_OF_PERICENTER,MEAN_ANOMALY,BSTAR,MEAN_MOTION_DOT,MEAN_MOTION_DDOT,TLE_LINE0,TLE_LINE1,TLE_LINE2,SEMIMAJOR_AXIS,PERIOD,APOGEE,PERIGEE,DECAYED
53736.0,STARLINK-4652,PAYLOAD,2022-10-28 22:00:01,15.45724225,0.0001612,53.2171,7.945,40.5607,225.1828,-0.025691,-0.01152814,0.0,0 STARLINK-4652,1 53736U 22107AN  22301.91668981 -.01152814  00000-0 -25691-1 0  9990,2 53736  53.2171   7.9450 0001612  40.5607 225.1828 15.45724225  8566,6807.388000000001,93.16,430.35,428.156,0.0
53736.0,STARLINK-4652,PAYLOAD,2022-10-29 12:00:00,15.44321248,0.0001653,53.2168,5.1788,39.7827,232.2075,-0.027601,-0.01177822,0.0,0 STARLINK-4652,1 53736U 22107AN  22302.50001157 -.01177822  00000-0 -27601-1 0  9991,2 53736  53.2168   5.1788 0001653  39.7827 232.2075 15.44321248  1300,6811.51,93.245,434.501,432.249,0.0
53736.0,STARLINK-4652,PAYLOAD,2022-10-29 22:00:01,15.43278649,0.0001706999999999,53.2173,3.2043,30.9131,38.1256,-0.027731,-0.01145083,0.0,0 STARLINK-4652,1 53736U 22107AN  22302.91668981 -.01145083  00000-0 -27731-1 0  9998,2 53736  53.2173   3.2043 0001707  30.9131  38.1256 15.43278649  1309,6814.578,93.308,437.606,435.279,0.0
53736.0,STARLINK-4652,PAYLOAD,2022-10-30 00:00:00,15.43071314,0.0001796,53.2174,2.8098,37.7079,134.4789,-0.027759,-0.01138804,0.0,0 STARLINK-4652,1 53736U 22107AN  22303.00001157 -.01138804  00000-0 -27759-1 0  9998,2 53736  53.2174   2.8098 0001796  37.7079 134.4789 15.43071314  8734,6815.188,93.32,438.277,435.829,0.0
53736.0,STARLINK-4652,PAYLOAD,2022-10-30 14:00:01,15.41651303,0.0001737,53.2173,0.0553,43.2674,129.6792,-0.02928,-0.01144446,0.0,0 STARLINK-4652,1 53736U 22107AN  22303.58334491 -.01144446  00000-0 -29280-1 0  9991,2 53736  53.2173   0.0553 0001737  43.2674 129.6792 15.41651303  1303,6819.371999999999,93.406,442.422,440.05300000000005,0.0
53736.0,STARLINK-4652,PAYLOAD,2022-10-30 22:00:01,15.40833531,0.0001592,53.2174,358.4811,47.004,176.5297,-0.029937,-0.01138973,0.0,0 STARLINK-4652,1 53736U 22107AN  22303.91668981 -.01138973  00000-0 -29937-1 0  9999,2 53736  53.2174 358.4811 0001592  47.0040 176.5297 15.40833531  1304,6821.785,93.456,444.736,442.564,0.0
53736.0,STARLINK-4652,PAYLOAD,2022-10-31 14:00:01,15.39214272,0.0001501999999999,53.2171,355.3438,41.7611,279.8092,-0.031912,-0.01149514,0.0,0 STARLINK-4652,1 53736U 22107AN  22304.58334491 -.01149514  00000-0 -31912-1 0  9998,2 53736  53.2171 355.3438 0001502  41.7611 279.8092 15.39214272  1301,6826.569,93.554,449.459,447.408,0.0
53736.0,STARLINK-4652,PAYLOAD,2022-10-31 22:00:01,15.38393176,0.0001447,53.2174,353.7754,41.1563,328.0694,-0.032497,-0.01140194,0.0,0 STARLINK-4652,1 53736U 22107AN  22304.91668981 -.01140194  00000-0 -32497-1 0  9993,2 53736  53.2174 353.7754 0001447  41.1563 328.0694 15.38393176  9027,6828.996999999999,93.604,451.851,449.874,0.0
53736.0,STARLINK-4652,PAYLOAD,2022-11-01 14:00:01,15.36766503,0.0001675,53.217,350.6496,40.7253,60.6735,-0.034259,-0.01139872,0.0,0 STARLINK-4652,1 53736U 22107AN  22305.58334491 -.01139872  00000-0 -34259-1 0  9992,2 53736  53.2170 350.6496 0001675  40.7253  60.6735 15.36766503  1300,6833.816,93.703,456.825,454.536,0.0
53736.0,STARLINK-4652,PAYLOAD,2022-11-01 22:00:00,15.35950309,0.0001681,53.2174,349.0872,42.2775,103.7761,-0.035061,-0.01136415,0.0,0 STARLINK-4652,1 53736U 22107AN  22305.91667824 -.01136415  00000-0 -35061-1 0  9990,2 53736  53.2174 349.0872 0001681  42.2775 103.7761 15.35950309  9187,6836.236,93.753,459.25,456.952,0.0
53736.0,STARLINK-4652,PAYLOAD,2022-11-02 14:00:01,15.34320812,0.0001688,53.2173,345.9732,44.238,188.1869,-0.036799,-0.01132236,0.0,0 STARLINK-4652,1 53736U 22107AN  22306.58334491 -.01132236  00000-0 -36799-1 0  9991,2 53736  53.2173 345.9732 0001688  44.2380 188.1869 15.34320812  9283,6841.076,93.853,464.095,461.786,0.0
53736.0,STARLINK-4652,PAYLOAD,2022-11-02 22:00:00,15.33509052,0.0001498,53.2175,344.4162,47.8436,226.301,-0.037894,-0.01135732,0.0,0 STARLINK-4652,1 53736U 22107AN  22306.91667824 -.01135732  00000-0 -37894-1 0  9998,2 53736  53.2175 344.4162 0001498  47.8436 226.3010 15.33509052  1308,6843.49,93.902,466.38,464.329,0.0
53736.0,STARLINK-4652,PAYLOAD,2022-11-03 06:00:02,15.32712545,0.0001509,53.2167,342.86300000000006,41.5659,273.3757,-0.039762,-0.01159654,0.0,0 STARLINK-4652,1 53736U 22107AN  22307.25002315 -.01159654  00000-0 -39762-1 0  9999,2 53736  53.2167 342.8630 0001509  41.5659 273.3757 15.32712545  9380,6845.86,93.951,468.758,466.692,0.0
53736.0,STARLINK-4652,PAYLOAD,2022-11-03 14:00:01,15.31888531,0.0001603,53.2167,341.3135,39.5942,315.0507,-0.040246,-0.01145029,0.0,0 STARLINK-4652,1 53736U 22107AN  22307.58334491 -.01145029  00000-0 -40246-1 0  9998,2 53736  53.2167 341.3135 0001603  39.5942 315.0507 15.31888531  1300,6848.315,94.002,471.278,469.082,0.0
53736.0,STARLINK-4652,PAYLOAD,2022-11-03 22:00:00,15.31067297,0.0001505,53.2174,339.7625,40.1951,353.2402,-0.040908,-0.01135123,0.0,0 STARLINK-4652,1 53736U 22107AN  22307.91667824 -.01135123  00000-0 -40908-1 0  9993,2 53736  53.2174 339.7625 0001505  40.1951 353.2402 15.31067297  1308,6850.764,94.052,473.66,471.598,0.0
53736.0,STARLINK-4652,PAYLOAD,2022-11-04 14:00:01,15.29439918,0.0001753,53.2172,336.6716,38.706,69.3655,-0.042996,-0.0113418,0.0,0 STARLINK-4652,1 53736U 22107AN  22308.58334491 -.01134180  00000-0 -42996-1 0  9999,2 53736  53.2172 336.6716 0001753  38.7060  69.3655 15.29439918  9596,6855.621999999999,94.152,478.689,476.286,0.0
53736.0,STARLINK-4652,PAYLOAD,2022-11-04 22:00:01,15.28631695,0.0001806,53.217,335.1261,37.7962,106.1899,-0.044441,-0.01142548,0.0,0 STARLINK-4652,1 53736U 22107AN  22308.91668981 -.01142548  00000-0 -44441-1 0  9994,2 53736  53.2170 335.1261 0001806  37.7962 106.1899 15.28631695  1308,6858.0390000000025,94.202,481.142,478.665,0.0
53736.0,STARLINK-4652,PAYLOAD,2022-11-05 06:00:00,15.27828978,0.0001684,53.2168,333.5849,43.8769,134.9141,-0.046208,-0.01173114,0.0,0 STARLINK-4652,1 53736U 22107AN  22309.25001157 -.01173114  00000-0 -46208-1 0  9994,2 53736  53.2168 333.5849 0001684  43.8769 134.9141 15.27828978  9696,6860.441,94.251,483.461,481.15,0.0
53736.0,STARLINK-4652,PAYLOAD,2022-11-05 14:00:01,15.27030496,0.0001788,53.2165,332.0464,38.4562,174.2865,-0.048266,-0.0119402,0.0,0 STARLINK-4652,1 53736U 22107AN  22309.58335648 -.01194020  00000-0 -48266-1 0  9990,2 53736  53.2165 332.0464 0001788  38.4562 174.2865 15.27030496  1306,6862.831999999999,94.301,485.924,483.47,0.0
53736.0,STARLINK-4652,PAYLOAD,2022-11-05 22:00:01,15.26248595,0.0004583,53.2168,330.5068,274.8023,330.8432,-0.051234,-0.01234877,0.0,0 STARLINK-4652,1 53736U 22107AN  22309.91668981 -.01234877  00000-0 -51234-1 0  9990,2 53736  53.2168 330.5068 0004583 274.8023 330.8432 15.26248595  9797,6865.176,94.349,490.187,483.894,0.0
53736.0,STARLINK-4652,PAYLOAD,2022-11-06 14:00:01,15.24579192,0.0001665999999999,53.2163,327.4386,37.4066,271.0985,-0.051266,-0.01178645,0.0,0 STARLINK-4652,1 53736U 22107AN  22310.58334491 -.01178645  00000-0 -51266-1 0  9996,2 53736  53.2163 327.4386 0001666  37.4066 271.0985 15.24579192  1305,6870.186,94.452,493.196,490.907,0.0
53736.0,STARLINK-4652,PAYLOAD,2022-11-07 22:00:00,15.21301242,0.0001662,53.2173,321.3204,38.7955,23.7947,-0.054904,-0.01147349,0.0,0 STARLINK-4652,1 53736U 22107AN  22311.91667824 -.01147349  00000-0 -54904-1 0  9992,2 53736  53.2173 321.3204 0001662  38.7955  23.7947 15.21301242  1301,6880.052,94.656,503.06,500.773,0.0
53736.0,STARLINK-4652,PAYLOAD,2022-11-08 00:00:02,15.21119586,0.0001884,53.2166,320.9385,40.6919,118.5607,-0.05672,-0.01176545,0.0,0 STARLINK-4652,1 53736U 22107AN  22312.00002315 -.01176545  00000-0 -56720-1 0  9999,2 53736  53.2166 320.9385 0001884  40.6919 118.5607 15.21119586 10119,6880.599,94.667,503.761,501.168,0.0
53736.0,STARLINK-4652,PAYLOAD,2022-11-08 14:00:01,15.19704416,0.0001907,53.2164,318.2745,37.1517,76.5912,-0.059749,-0.01187941,0.0,0 STARLINK-4652,1 53736U 22107AN  22312.58334491 -.01187941  00000-0 -59749-1 0  9991,2 53736  53.2164 318.2745 0001907  37.1517  76.5912 15.19704416  1300,6884.87,94.755,508.048,505.422,0.0
53736.0,STARLINK-4652,PAYLOAD,2022-11-08 22:00:00,15.18877377,0.0001977,53.2169,316.7524,35.1577,102.7111,-0.060298,-0.01171657,0.0,0 STARLINK-4652,1 53736U 22107AN  22312.91667824 -.01171657  00000-0 -60298-1 0  9995,2 53736  53.2169 316.7524 0001977  35.1577 102.7111 15.18877377  1303,6887.369000000002,94.807,510.596,507.87300000000016,0.0
53736.0,STARLINK-4652,PAYLOAD,2022-11-09 06:00:00,15.18067228,0.0001816,53.2169,315.2347,47.2221,113.7844,-0.061994,-0.01176174,0.0,0 STARLINK-4652,1 53736U 22107AN  22313.25001157 -.01176174  00000-0 -61994-1 0  9997,2 53736  53.2169 315.2347 0001816  47.2221 113.7844 15.18067228 10303,6889.819,94.857,512.936,510.4330000000001,0.0
53736.0,STARLINK-4652,PAYLOAD,2022-11-09 14:00:01,15.17258341,0.0001901,53.2165,313.7182,39.3399,143.826,-0.063822,-0.01182352,0.0,0 STARLINK-4652,1 53736U 22107AN  22313.58334491 -.01182352  00000-0 -63822-1 0  9990,2 53736  53.2165 313.7182 0001901  39.3399 143.8260 15.17258341  1305,6892.268,94.908,515.443,512.823,0.0
53736.0,STARLINK-4652,PAYLOAD,2022-11-09 22:00:01,15.1649062,0.0004013,53.2167,312.2017,277.4652,286.9222,-0.0685549999999999,-0.01237859,0.0,0 STARLINK-4652,1 53736U 22107AN  22313.91668981 -.01237859  00000-0 -68555-1 0  9992,2 53736  53.2167 312.2017 0004013 277.4652 286.9222 15.16490620  1306,6894.594,94.956,519.226,513.692,0.0
53736.0,STARLINK-4652,PAYLOAD,2022-11-10 14:00:01,15.14810158,0.0001806,53.2166,309.1789,47.4872,196.3014,-0.067874,-0.01173009,0.0,0 STARLINK-4652,1 53736U 22107AN  22314.58334491 -.01173009  00000-0 -67874-1 0  9991,2 53736  53.2166 309.1789 0001806  47.4872 196.3014 15.14810158  1305,6899.691999999999,95.061,522.803,520.311,0.0
